{
    "links": {
        "self": "http://www.neowsapp.com/rest/v1/neo/3893748?api_key=iIulBulltgU6a56xZRHN4H3l9WmuAYTsLGpBGhQ2"
    },
    "id": "3893748",
    "neo_reference_id": "3893748",
    "name": "(2019 WA6)",
    "designation": "2019 WA6",
    "nasa_jpl_url": "http://ssd.jpl.nasa.gov/sbdb.cgi?sstr=3893748",
    "absolute_magnitude_h": 25.8,
    "estimated_diameter": {
        "kilometers": {
            "estimated_diameter_min": 0.0183888672,
            "estimated_diameter_max": 0.0411187571
        },
        "meters": {
            "estimated_diameter_min": 18.388867207,
            "estimated_diameter_max": 41.1187571041
        },
        "miles": {
            "estimated_diameter_min": 0.0114263088,
            "estimated_diameter_max": 0.0255500032
        },
        "feet": {
            "estimated_diameter_min": 60.3309310875,
            "estimated_diameter_max": 134.9040630575
        }
    },
    "is_potentially_hazardous_asteroid": false,
    "close_approach_data": [
        {
            "close_approach_date": "2019-11-23",
            "close_approach_date_full": "2019-Nov-23 23:54",
            "epoch_date_close_approach": 1574553240000,
            "relative_velocity": {
                "kilometers_per_second": "9.2024802923",
                "kilometers_per_hour": "33128.9290521702",
                "miles_per_hour": "20585.0281657776"
            },
            "miss_distance": {
                "astronomical": "0.0320324579",
                "lunar": "12.4606261231",
                "kilometers": "4791987.472704673",
                "miles": "2977602.9422555674"
            },
            "orbiting_body": "Earth"
        }
    ],
    "orbital_data": {
        "orbit_id": "1",
        "orbit_determination_date": "2019-12-01 23:42:16",
        "first_observation_date": "2019-11-26",
        "last_observation_date": "2019-11-28",
        "data_arc_in_days": 2,
        "observations_used": 11,
        "orbit_uncertainty": "8",
        "minimum_orbit_intersection": ".0318688",
        "jupiter_tisserand_invariant": "3.260",
        "epoch_osculation": "2458814.5",
        "eccentricity": ".5761767936304483",
        "semi_major_axis": "2.399278009707712",
        "inclination": "10.44308050186523",
        "ascending_node_longitude": "238.9254291321775",
        "orbital_period": "1357.435763864266",
        "perihelion_distance": "1.016869699046279",
        "perihelion_argument": "187.7859585455281",
        "aphelion_distance": "3.781686320369146",
        "perihelion_time": "2458816.215789707806",
        "mean_anomaly": "359.5449624127688",
        "mean_motion": ".2652059195605498",
        "equinox": "J2000",
        "orbit_class": {
            "orbit_class_type": "APO",
            "orbit_class_description": "Near-Earth asteroid orbits which cross the Earth’s orbit similar to that of 1862 Apollo",
            "orbit_class_range": "a (semi-major axis) > 1.0 AU; q (perihelion) < 1.017 AU"
        }
    },
    "is_sentry_object": false
}